108P/Ciffreo,e,11.4357,50.2985,354.5121,3.742911,0.1361099,0.55599640,143.2625,07/29.0/2024,2000,g  8.0,12.0
# From  105, 420
109P/Swift-Tuttle,e,113.3525,139.5276,153.2360,26.21221,0.0073443,0.96265246,84.7823,07/29.0/2024,2000,g  4.0,6.0
# From MPEC 2023-KD6
110P/Hartley,e,11.7089,287.4869,167.5161,3.603855,0.1440632,0.31909011,146.0902,07/29.0/2024,2000,g  1.0,12.0
# From MPC 75718
111P/Helin-Roman-Crockett,e,4.2260,89.8114,1.2733,4.152437,0.1164795,0.10716434,132.3870,07/29.0/2024,2000,g  5.0,8.0
# From MPEC 2021-S45
112P/Urata-Niijima,e,24.2076,31.8299,21.5137,3.523297,0.1490322,0.59087222,243.0579,07/29.0/2024,2000,g 14.0,6.0
# From MPEC 2024-JU4
113P/Spitaler,e,5.2875,306.6456,115.6664,3.694833,0.1387752,0.41990894,109.3873,07/29.0/2024,2000,g 13.5,4.0
# From MPEC 2023-A50
114P/Wiseman-Skiff,e,18.3027,271.0253,172.7765,3.541211,0.1479028,0.55602612,244.9429,07/29.0/2024,2000,g 11.5,6.0
# From MPEC 2023-J29
115P/Maury,e,11.6770,176.0134,120.9492,4.272000,0.1116239,0.51751667,163.2216,07/29.0/2024,2000,g 10.5,6.0
# From MPEC 2024-JU4
116P/Wild,e,3.6037,20.9669,173.1905,3.487183,0.1513533,0.37036968,112.5132,07/29.0/2024,2000,g  2.5,10.0
# From MPEC 2024-F91
117P/Helin-Roman-Alu,e,8.7041,58.8181,223.8978,4.100546,0.1186975,0.25565416,88.8300,07/29.0/2024,2000,g  2.5,8.0
# From MPEC 2024-MB8
118P/Shoemaker-Levy,e,10.0903,142.0761,314.9015,3.348482,0.1608541,0.45376180,98.5195,07/29.0/2024,2000,g 12.0,4.0
# From MPEC 2024-N80
119P/Parker-Hartley,e,7.3923,104.5526,322.2063,3.808097,0.1326301,0.38835130,95.0480,07/29.0/2024,2000,g  3.5,8.0
# From MPEC 2022-CN4
120P/Mueller,e,8.4852,358.7202,36.7371,3.968519,0.1246698,0.37458616,146.8838,07/29.0/2024,2000,g 12.0,4.0
# From MPEC 2024-JU4
121P/Shoemaker-Holt,e,20.1624,94.1094,11.8011,4.586697,0.1003353,0.18658835,39.6654,07/29.0/2024,2000,g  6.5,8.0
# From MPC 75718
122P/de Vico,e,85.9949,79.7359,12.9948,17.62955,0.0133150,0.96250274,140.3135,07/29.0/2024,2000,g  7.5,5.2
# From MPEC 2021-F20
123P/West-Hartley,e,15.2806,45.9004,104.0035,3.881982,0.1288617,0.44434958,258.7795,07/29.0/2024,2000,g 12.2,4.0
# From MPEC 2023-T65
124P/Mrkos,e,31.4305,0.0454,185.1576,3.374339,0.1590088,0.48659591,249.5288,07/29.0/2024,2000,g 13.5,2.8
# From MPEC 2024-O39
125P/Spacewatch,e,9.9851,153.1486,87.1341,3.128859,0.1780841,0.51207373,25.5937,07/29.0/2024,2000,g 13.0,6.0
# From MPEC 2024-JU4
126P/IRAS,e,45.8710,357.8584,356.5751,5.631712,0.0737468,0.69630099,28.7433,07/29.0/2024,2000,g  6.0,8.0
# From MPEC 2024-AF0
127P/Holt-Olmstead,e,14.2995,13.6113,6.3232,3.453270,0.1535884,0.35915307,110.3738,07/29.0/2024,2000,g 11.0,6.0
# From MPC 89014
128P/Shoemaker-Holt,e,4.3704,214.3356,210.3975,4.484555,0.1037827,0.32242174,285.5425,07/29.0/2024,2000,g  8.5,4.0
# From MPEC 2024-L77
129P/Shoemaker-Levy,e,3.4420,184.8598,307.6295,4.292408,0.1108288,0.08571705,67.0995,07/29.0/2024,2000,g 11.0,4.0
# From MPEC 2024-O39
130P/McNaught-Hughes,e,6.0636,70.1783,246.1338,3.381183,0.1585262,0.46083681,16.6618,07/29.0/2024,2000,g 10.0,6.0
# From MPC102101
131P/Mueller,e,7.3604,214.1757,179.1475,3.676441,0.1398179,0.34490888,280.8060,07/29.0/2024,2000,g 11.0,4.0
# From MPEC 2024-BE0
132P/Helin-Roman-Alu,e,5.3804,173.9921,216.4721,3.891080,0.1284100,0.56444901,126.9694,07/29.0/2024,2000,g 11.0,6.0
# From MPC 94676
133P/Elst-Pizarro,e,1.3898,160.1006,131.9110,3.163980,0.1751272,0.15590256,13.9579,07/29.0/2024,2000,g 15.4,2.0
# From MPC 89012
134P/Kowal-Vavrova,e,4.3345,202.0077,18.7363,6.268825,0.0627950,0.58522949,234.9238,07/29.0/2024,2000,g 11.5,4.0
# From MPEC 2024-C04
135P/Shoemaker-Levy,e,6.0639,213.0191,22.4078,3.800854,0.1330094,0.29399512,112.2449,07/29.0/2024,2000,g  7.0,8.0
# From MPEC 2022-K19
136P/Mueller,e,9.4284,137.4965,225.1800,4.185500,0.1151020,0.29316536,341.7742,07/29.0/2024,2000,g 11.0,4.0
# From MPEC 2023-J29
137P/Shoemaker-Levy,e,4.8606,232.9238,141.2247,4.522701,0.1024725,0.57341843,210.3302,07/29.0/2024,2000,g 11.0,4.0
# From MPEC 2016-U66
138P/Shoemaker-Levy,e,10.0973,309.2810,95.6503,3.618436,0.1431933,0.53163135,273.6245,07/29.0/2024,2000,g 15.0,6.0
# From MPEC 2020-HN5
139P/Vaisala-Oterma,e,2.3375,242.1830,165.8850,4.515370,0.1027221,0.24837331,248.2190,07/29.0/2024,2000,g  9.5,4.0
# From MPEC 2015-E14
140P/Bowell-Skiff,e,3.7502,343.3668,172.2564,6.407940,0.0607612,0.69588575,200.4061,07/29.0/2024,2000,g 11.5,6.0
# From MPEC 2022-K19
141P/Machholz,e,13.9560,241.8090,153.6078,3.057433,0.1843608,0.73604305,243.3148,07/29.0/2024,2000,g 12.0,12.0
# From MPEC 2015-KD9
141P-A/Machholz,e,13.9423,153.5356,241.8944,3.057566,0.1843488,0.73604344,243.2671,07/29.0/2024,2000,g 12.0,12.0
# From MPC 24216
141P-B/Machholz,e,13.9862,153.6113,241.7836,3.055950,0.1844951,0.73580201,244.6465,07/29.0/2024,2000,g  9.0,4.0
# From MPC 37026
141P-D/Machholz,e,13.8343,153.2624,242.1422,3.066039,0.1835851,0.73699592,239.1178,07/29.0/2024,2000,g  9.0,4.0
# From MPEC 2015-R12
141P-E/Machholz,e,12.8152,246.1856,149.2667,3.012914,0.1884620,0.75023267,359.9529,09/19.0/1994,2000,g  9.0,4.0
# From MPEC 2015-R12
141P-F/Machholz,e,12.7898,246.1881,149.2374,3.010224,0.1887147,0.75000946,359.9630,09/19.0/1994,2000,g  9.0,4.0
# From MPEC 2015-R12
141P-G/Machholz,e,12.8259,246.3146,149.0784,3.005818,0.1891298,0.74964304,359.9802,09/19.0/1994,2000,g  9.0,4.0
# From MPC 95735
141P-H/Machholz,e,12.8431,246.0900,149.4500,3.008012,0.1889230,0.74682218,359.9270,08/24.0/2015,2000,g 18.5,4.0
# From MPEC 2022-SU8
141P-I/Machholz,e,13.9422,153.4900,241.9045,3.048043,0.1852134,0.73526943,244.5207,07/29.0/2024,2000,g 17.5,4.0
# From MPEC 2024-C04
142P/Ge-Wang,e,12.2484,175.9489,174.0769,5.002819,0.0880809,0.49641595,103.3900,07/29.0/2024,2000,g  8.5,6.0
# From MPEC 2023-XP6
143P/Kowal-Mrkos,e,5.5972,243.3222,317.2985,4.366972,0.1080024,0.43130935,263.9689,07/29.0/2024,2000,g 13.5,2.0
# From MPEC 2024-M41
144P/Kushida,e,3.9319,242.9246,216.3293,3.831699,0.1314065,0.63490582,24.3392,07/29.0/2024,2000,g  8.5,8.0
# From MPC108598
145P/Shoemaker-Levy,e,11.2770,26.8085,10.3339,4.132534,0.1173220,0.54260129,295.2604,07/29.0/2024,2000,g 13.5,4.0
# From MPEC 2024-O39
146P/Shoemaker-LINEAR,e,23.1230,53.3751,317.0803,4.026138,0.1220031,0.64741722,359.0918,07/29.0/2024,2000,g 15.0,4.0
# From MPC 75720
147P/Kushida-Muramatsu,e,2.2914,92.1164,348.1018,4.009634,0.1227572,0.21222911,28.8439,07/29.0/2024,2000,g 14.0,4.0
# From MPEC 2024-JU4
148P/Anderson-LINEAR,e,3.6588,89.1959,8.0593,3.619888,0.1431072,0.55029828,111.0569,07/29.0/2024,2000,g 16.0,2.0
# From MPEC 2023-J29
149P/Mueller,e,34.2344,143.8198,30.3568,4.125771,0.1176106,0.32433080,257.5266,07/29.0/2024,2000,g  8.0,8.0
# From MPEC 2024-NE4
150P/LONEOS,e,18.5475,272.0572,246.1179,3.870794,0.1294208,0.54903492,17.9286,07/29.0/2024,2000,g 13.5,4.0
# From MPEC 2022-K19
151P/Helin,e,4.7270,143.1526,216.1451,5.764584,0.0712118,0.57309948,228.6204,07/29.0/2024,2000,g 10.0,6.0
# From MPEC 2024-L77
152P/Helin-Lawrence,e,9.8787,91.7863,164.4137,4.484224,0.1037942,0.30773742,96.1565,07/29.0/2024,2000,g 11.5,4.0
# From MPC 46101
153P/Ikeya-Zhang,e,28.4348,93.7409,34.3209,50.37530,0.0027566,0.99003193,0.0000,03/07.3653/2002,2000,g  9.0,4.0
# From MPEC 2024-O39
154P/Brewington,e,17.6338,343.0136,47.9499,4.798438,0.0937679,0.67636402,4.2880,07/29.0/2024,2000,g  2.5,12.0
# From MPEC 2022-YN2
155P/Shoemaker,e,6.4088,97.1579,14.5199,6.571084,0.0585125,0.72741765,100.4423,07/29.0/2024,2000,g 10.0,4.8
# From MPEC 2023-J29
156P/Russell-LINEAR,e,17.2677,35.3413,0.5117,3.462544,0.1529717,0.61508663,206.2415,07/29.0/2024,2000,g 15.5,2.0
# From MPEC 2024-D33
157P/Tritton,e,12.4217,287.5112,155.1379,3.547246,0.1475255,0.55684515,101.4987,07/29.0/2024,2000,g 10.0,4.0
# From MPEC 2022-VC5
157P-B/Tritton,e,12.4246,153.9074,287.1597,3.102456,0.1803622,0.49991685,124.4142,07/29.0/2024,2000,g 15.7,4.0
# From MPEC 2024-D33
158P/Kowal-LINEAR,e,7.3299,125.9810,219.4776,5.592938,0.0745151,0.11757262,57.8251,07/29.0/2024,2000,g  9.0,4.0
# From MPEC 2024-DC6
159P/LONEOS,e,23.4892,54.9390,4.6721,5.853776,0.0695905,0.38278688,157.0304,07/29.0/2024,2000,g 10.0,4.0
# From MPEC 2022-K19
160P/LINEAR,e,15.6008,333.3669,12.7902,3.778562,0.1341882,0.52536692,228.2330,07/29.0/2024,2000,g 15.5,2.0
# From MPC 75721
161P/Hartley-IRAS,e,95.8199,1.5475,47.0677,7.713007,0.0460117,0.83569645,320.7934,07/29.0/2024,2000,g  8.5,6.0
# From MPEC 2024-LE0
162P/SidingSpring,e,27.5606,30.8860,357.2226,3.092104,0.1812687,0.58307788,240.7804,07/29.0/2024,2000,g 12.0,4.0
# From MPEC 2021-S45
163P/NEAT,e,12.7202,102.0707,349.5892,3.762503,0.1350482,0.45332390,245.4937,07/29.0/2024,2000,g 14.5,4.0
# From MPEC 2024-MB8
164P/Christensen,e,16.2772,88.2690,325.9362,3.651905,0.1412293,0.54123652,317.2945,07/29.0/2024,2000,g 11.0,4.0
# From MPC 75721
165P/LINEAR,e,15.9017,0.7622,125.7898,17.81673,0.0131058,0.61847534,115.6105,07/29.0/2024,2000,g 11.5,2.0
# From MPC 75722
166P/NEAT,e,15.3800,64.4292,321.7736,13.82946,0.0191644,0.38392377,154.9356,07/29.0/2024,2000,g  5.5,4.0
# From MPEC 2023-J29
167P/CINEOS,e,19.0830,295.8110,344.6514,16.25811,0.0150348,0.26813374,127.9552,07/29.0/2024,2000,g  9.5,2.0
# From MPEC 2023-J29
168P/Hergenrother,e,21.6007,355.4099,15.0862,3.586827,0.1450903,0.62146037,263.3530,07/29.0/2024,2000,g 15.5,4.0
# From MPEC 2023-J95
169P/NEAT,e,11.2920,176.0844,218.0933,2.603445,0.2346288,0.76823465,176.0221,07/29.0/2024,2000,g 16.0,2.0
# From MPEC 2024-L77
170P/Christensen,e,10.1180,142.6759,225.0247,4.202180,0.1144174,0.30539351,53.6587,07/29.0/2024,2000,g 12.0,4.0
# From MPC102102
171P/Spahr,e,21.9504,101.7001,347.0735,3.552287,0.1472116,0.50264321,297.7214,07/29.0/2024,2000,g 13.5,4.0
# From MPEC 2024-L77
172P/Yeung,e,11.2248,30.8794,208.9929,4.221195,0.1136452,0.20458014,307.4858,07/29.0/2024,2000,g 13.0,4.0
# From MPEC 2023-N01
173P/Mueller,e,16.4915,100.3526,29.2094,5.713276,0.0721732,0.26212601,68.9264,07/29.0/2024,2000,g  7.5,4.0
# From MPC 92985
174P/Echeclus,e,4.3425,173.3085,163.4465,10.75700,0.0279362,0.45564763,94.5457,07/29.0/2024,2000,g  9.4,2.0
# From MPC114608
